TIANQI-15               
1 49027U 21065B   26068.81163741  .00006722  00000+0  41179-3 0  9990
2 49027  34.9979 108.2420 0007067 250.7766 109.2180 15.09508085254244
STARLINK-3877           
1 52355U 22045AA  26068.62268676 -.00000672  00000+0 -24170-4 0  9992
2 52355  53.2181 199.4243 0001192  84.7847 275.3281 15.08839590215773
